{
  "type": "FeatureCollection",
  "features": [
    {
      "type": "Feature",
      "properties": {
        "norad_id": 66539,
        "name": "STARLINK-35697",
        "group": "last-30-days",
        "lat": -11.846820427022749,
        "lon": -111.59194563974243,
        "alt_km": 415.38112429781086,
        "timestamp": "2025-12-12T11:38:30.169494+00:00",
        "meta_object_name": "STARLINK-35697",
        "meta_object_id": "2025-265Z",
        "meta_epoch": "2025-12-12T04:00:01.998720",
        "meta_mean_motion": 15.50508143,
        "meta_eccentricity": 0.0001762,
        "meta_inclination": 43.0004,
        "meta_ra_of_asc_node": 57.2618,
        "meta_arg_of_pericenter": 242.4245,
        "meta_mean_anomaly": 335.7068,
        "meta_ephemeris_type": 0,
        "meta_classification_type": "U",
        "meta_norad_cat_id": 66539,
        "meta_element_set_no": 999,
        "meta_rev_at_epoch": 490,
        "meta_bstar": 0.0020411,
        "meta_mean_motion_dot": 0.00120962,
        "meta_mean_motion_ddot": 0,
        "tle_line1": "1 66539U 25265Z   25346.16668980  .00120962  00000+0  20411-2 0  9992",
        "tle_line2": "2 66539  43.0004  57.2618 0001762 242.4245 335.7068 15.50508143  4907"
      },
      "geometry": {
        "type": "Point",
        "coordinates": [
          -111.59194563974243,
          -11.846820427022749
        ]
      }
    },
    {
      "type": "Feature",
      "properties": {
        "norad_id": 66540,
        "name": "STARLINK-35818",
        "group": "last-30-days",
        "lat": -13.15379386692816,
        "lon": -110.08195791674058,
        "alt_km": 415.97430119910223,
        "timestamp": "2025-12-12T11:38:30.169505+00:00",
        "meta_object_name": "STARLINK-35818",
        "meta_object_id": "2025-265AA",
        "meta_epoch": "2025-12-12T04:00:01.998720",
        "meta_mean_motion": 15.50448883,
        "meta_eccentricity": 0.0001734,
        "meta_inclination": 43.0004,
        "meta_ra_of_asc_node": 57.2565,
        "meta_arg_of_pericenter": 260.1454,
        "meta_mean_anomaly": 320.0336,
        "meta_ephemeris_type": 0,
        "meta_classification_type": "U",
        "meta_norad_cat_id": 66540,
        "meta_element_set_no": 999,
        "meta_rev_at_epoch": 490,
        "meta_bstar": 0.0019463,
        "meta_mean_motion_dot": 0.00114996,
        "meta_mean_motion_ddot": 0,
        "tle_line1": "1 66540U 25265AA  25346.16668980  .00114996  00000+0  19463-2 0  9999",
        "tle_line2": "2 66540  43.0004  57.2565 0001734 260.1454 320.0336 15.50448883  4907"
      },
      "geometry": {
        "type": "Point",
        "coordinates": [
          -110.08195791674058,
          -13.15379386692816
        ]
      }
    },
    {
      "type": "Feature",
      "properties": {
        "norad_id": 66541,
        "name": "STARLINK-35796",
        "group": "last-30-days",
        "lat": -14.45816407627536,
        "lon": -108.54791079819371,
        "alt_km": 415.85663859560555,
        "timestamp": "2025-12-12T11:38:30.169515+00:00",
        "meta_object_name": "STARLINK-35796",
        "meta_object_id": "2025-265AB",
        "meta_epoch": "2025-12-12T04:00:01.998720",
        "meta_mean_motion": 15.50606635,
        "meta_eccentricity": 0.0001788,
        "meta_inclination": 43.0002,
        "meta_ra_of_asc_node": 57.2519,
        "meta_arg_of_pericenter": 264.1642,
        "meta_mean_anomaly": 317.8566,
        "meta_ephemeris_type": 0,
        "meta_classification_type": "U",
        "meta_norad_cat_id": 66541,
        "meta_element_set_no": 999,
        "meta_rev_at_epoch": 490,
        "meta_bstar": 0.00018497,
        "meta_mean_motion_dot": 0.00010535,
        "meta_mean_motion_ddot": 0,
        "tle_line1": "1 66541U 25265AB  25346.16668980  .00010535  00000+0  18497-3 0  9991",
        "tle_line2": "2 66541  43.0002  57.2519 0001788 264.1642 317.8566 15.50606635  4907"
      },
      "geometry": {
        "type": "Point",
        "coordinates": [
          -108.54791079819371,
          -14.45816407627536
        ]
      }
    },
    {
      "type": "Feature",
      "properties": {
        "norad_id": 66542,
        "name": "STARLINK-35833",
        "group": "last-30-days",
        "lat": -15.691811306796291,
        "lon": -107.06887840794066,
        "alt_km": 416.09580489425844,
        "timestamp": "2025-12-12T11:38:30.169525+00:00",
        "meta_object_name": "STARLINK-35833",
        "meta_object_id": "2025-265AC",
        "meta_epoch": "2025-12-12T04:00:01.998720",
        "meta_mean_motion": 15.50491349,
        "meta_eccentricity": 0.0001527,
        "meta_inclination": 43.0003,
        "meta_ra_of_asc_node": 57.2474,
        "meta_arg_of_pericenter": 259.5104,
        "meta_mean_anomaly": 324.4928,
        "meta_ephemeris_type": 0,
        "meta_classification_type": "U",
        "meta_norad_cat_id": 66542,
        "meta_element_set_no": 999,
        "meta_rev_at_epoch": 490,
        "meta_bstar": 0.0019406,
        "meta_mean_motion_dot": 0.00114829,
        "meta_mean_motion_ddot": 0,
        "tle_line1": "1 66542U 25265AC  25346.16668980  .00114829  00000+0  19406-2 0  9993",
        "tle_line2": "2 66542  43.0003  57.2474 0001527 259.5104 324.4928 15.50491349  4901"
      },
      "geometry": {
        "type": "Point",
        "coordinates": [
          -107.06887840794066,
          -15.691811306796291
        ]
      }
    },
    {
      "type": "Feature",
      "properties": {
        "norad_id": 66543,
        "name": "STARLINK-35315",
        "group": "last-30-days",
        "lat": -16.942884264766608,
        "lon": -105.53831501639638,
        "alt_km": 416.210578866222,
        "timestamp": "2025-12-12T11:38:30.169535+00:00",
        "meta_object_name": "STARLINK-35315",
        "meta_object_id": "2025-265AD",
        "meta_epoch": "2025-12-12T04:00:01.998720",
        "meta_mean_motion": 15.50522572,
        "meta_eccentricity": 0.0001323,
        "meta_inclination": 43.0003,
        "meta_ra_of_asc_node": 57.2425,
        "meta_arg_of_pericenter": 255.9874,
        "meta_mean_anomaly": 329.9281,
        "meta_ephemeris_type": 0,
        "meta_classification_type": "U",
        "meta_norad_cat_id": 66543,
        "meta_element_set_no": 999,
        "meta_rev_at_epoch": 479,
        "meta_bstar": 0.0011539,
        "meta_mean_motion_dot": 0.00067804,
        "meta_mean_motion_ddot": 0,
        "tle_line1": "1 66543U 25265AD  25346.16668980  .00067804  00000+0  11539-2 0  9993",
        "tle_line2": "2 66543  43.0003  57.2425 0001323 255.9874 329.9281 15.50522572  4798"
      },
      "geometry": {
        "type": "Point",
        "coordinates": [
          -105.53831501639638,
          -16.942884264766608
        ]
      }
    },
    {
      "type": "Feature",
      "properties": {
        "norad_id": 66544,
        "name": "STARLINK-35728",
        "group": "last-30-days",
        "lat": -18.158174750685415,
        "lon": -104.01760142300614,
        "alt_km": 416.2036057863452,
        "timestamp": "2025-12-12T11:38:30.169546+00:00",
        "meta_object_name": "STARLINK-35728",
        "meta_object_id": "2025-265AE",
        "meta_epoch": "2025-12-12T04:00:01.998720",
        "meta_mean_motion": 15.50474128,
        "meta_eccentricity": 0.0001581,
        "meta_inclination": 43.0002,
        "meta_ra_of_asc_node": 57.2378,
        "meta_arg_of_pericenter": 260.0635,
        "meta_mean_anomaly": 327.7695,
        "meta_ephemeris_type": 0,
        "meta_classification_type": "U",
        "meta_norad_cat_id": 66544,
        "meta_element_set_no": 999,
        "meta_rev_at_epoch": 490,
        "meta_bstar": 0.0028939,
        "meta_mean_motion_dot": 0.00172581,
        "meta_mean_motion_ddot": 0,
        "tle_line1": "1 66544U 25265AE  25346.16668980  .00172581  00000+0  28939-2 0  9995",
        "tle_line2": "2 66544  43.0002  57.2378 0001581 260.0635 327.7695 15.50474128  4904"
      },
      "geometry": {
        "type": "Point",
        "coordinates": [
          -104.01760142300614,
          -18.158174750685415
        ]
      }
    },
    {
      "type": "Feature",
      "properties": {
        "norad_id": 66545,
        "name": "SHIJIAN-30A",
        "group": "last-30-days",
        "lat": -33.16832603964073,
        "lon": -56.92441662948096,
        "alt_km": 516.1196415728555,
        "timestamp": "2025-12-12T11:38:30.169559+00:00",
        "meta_object_name": "SHIJIAN-30A",
        "meta_object_id": "2025-266A",
        "meta_epoch": "2025-12-12T03:55:22.499904",
        "meta_mean_motion": 15.15634142,
        "meta_eccentricity": 0.0012771,
        "meta_inclination": 51.7982,
        "meta_ra_of_asc_node": 335.5616,
        "meta_arg_of_pericenter": 354.4589,
        "meta_mean_anomaly": 5.6244,
        "meta_ephemeris_type": 0,
        "meta_classification_type": "U",
        "meta_norad_cat_id": 66545,
        "meta_element_set_no": 999,
        "meta_rev_at_epoch": 349,
        "meta_bstar": 0.00085094,
        "meta_mean_motion_dot": 0.00016137,
        "meta_mean_motion_ddot": 0,
        "tle_line1": "1 66545U 25266A   25346.16345486  .00016137  00000+0  85094-3 0  9990",
        "tle_line2": "2 66545  51.7982 335.5616 0012771 354.4589   5.6244 15.15634142  3494"
      },
      "geometry": {
        "type": "Point",
        "coordinates": [
          -56.92441662948096,
          -33.16832603964073
        ]
      }
    }
  ]
}